[{"OBJECT_NAME":"STARLINK-35692","OBJECT_ID":"2025-263AE","EPOCH":"2026-03-09T03:27:29.670624","MEAN_MOTION":15.27618533,"ECCENTRICITY":9.372e-5,"INCLINATION":43,"RA_OF_ASC_NODE":353.9242,"ARG_OF_PERICENTER":256.6074,"MEAN_ANOMALY":103.4673,"EPHEMERIS_TYPE":0,"CLASSIFICATION_TYPE":"U","NORAD_CAT_ID":66513,"ELEMENT_SET_NO":999,"REV_AT_EPOCH":1881,"BSTAR":0.0010285494,"MEAN_MOTION_DOT":0.00028183,"MEAN_MOTION_DDOT":0},{"OBJECT_NAME":"CZ-2C R\/B","OBJECT_ID":"2017-085D","EPOCH":"2026-03-09T07:36:19.955232","MEAN_MOTION":15.36259494,"ECCENTRICITY":0.00550258,"INCLINATION":34.6583,"RA_OF_ASC_NODE":163.0948,"ARG_OF_PERICENTER":204.4819,"MEAN_ANOMALY":155.3278,"EPHEMERIS_TYPE":0,"CLASSIFICATION_TYPE":"U","NORAD_CAT_ID":43084,"ELEMENT_SET_NO":999,"REV_AT_EPOCH":45326,"BSTAR":0.00049058122,"MEAN_MOTION_DOT":0.00018774,"MEAN_MOTION_DDOT":0}]
